0 OBJECT B
1 57167U 23091B   24308.57007313  .00051534  00000-0  23115-2 0  9996
2 57167  97.5915   1.8351 0012974   3.2441 356.8876 15.20947766 74673
0 OBJECT B
1 57167U 23091B   24308.89901942  .00058296  00000-0  26090-2 0  9999
2 57167  97.5915   2.1660 0012887   1.9618 358.1665 15.20988601 74724
0 OBJECT B
1 57167U 23091B   24309.29374475  .00063623  00000-0  28412-2 0  9999
2 57167  97.5914   2.5637 0012875   0.7857 359.3396 15.21035191 74788
0 OBJECT B
1 57167U 23091B   24309.42531725  .00064738  00000-0  28894-2 0  9999
2 57167  97.5913   2.6964 0012907   0.3249 359.7992 15.21048135 74809
0 OBJECT B
1 57167U 23091B   24309.62267337  .00054930  00000-0  24537-2 0  9999
2 57167  97.5912   2.8952 0012923 359.6087   0.5136 15.21071030 74839
0 OBJECT B
1 57167U 23091B   24309.82002633  .00052137  00000-0  23285-2 0  9993
2 57167  97.5911   3.0937 0012836 358.9292   1.1914 15.21093604 74862
0 OBJECT B
1 57167U 23091B   24309.88580996  .00049867  00000-0  22275-2 0  9996
2 57167  97.5911   3.1598 0012805 358.7444   1.3756 15.21100498 74876
0 OBJECT B
1 57167U 23091B   24310.14894263  .00044019  00000-0  19667-2 0  9997
2 57167  97.5910   3.4249 0012745 357.9053   2.2127 15.21127347 74910
0 OBJECT B
1 57167U 23091B   24310.47785147  .00048929  00000-0  21823-2 0  9994
2 57167  97.5909   3.7567 0012803 356.8376   3.2776 15.21157973 74969
0 OBJECT B
1 57167U 23091B   24310.60941301  .00048684  00000-0  21705-2 0  9992
2 57167  97.5909   3.8895 0012795 356.3680   3.7460 15.21172950 74986
0 OBJECT B
1 57167U 23091B   24310.74097308  .00048404  00000-0  21572-2 0  9998
2 57167  97.5908   4.0219 0012754 355.8045   4.3081 15.21187983 75004
0 OBJECT B
1 57167U 23091B   24311.13564669  .00041178  00000-0  18352-2 0  9994
2 57167  97.5907   4.4193 0012660 354.2603   5.8485 15.21230245 75067
0 OBJECT B
1 57167U 23091B   24311.26720201  .00050119  00000-0  22293-2 0  9998
2 57167  97.5907   4.5521 0012669 353.8644   6.2434 15.21246280 75089
0 OBJECT B
1 57167U 23091B   24311.46453264  .00049633  00000-0  22066-2 0  9999
2 57167  97.5906   4.7511 0012725 352.9896   7.1159 15.21264965 75119
0 OBJECT B
1 57167U 23091B   24311.53030876  .00051567  00000-0  22912-2 0  9996
2 57167  97.5906   4.8175 0012741 352.6889   7.4158 15.21274386 75124
0 OBJECT B
1 57167U 23091B   24311.79341058  .00051651  00000-0  22930-2 0  9995
2 57167  97.5904   5.0823 0012703 351.5179   8.5839 15.21303290 75162
0 OBJECT B
1 57167U 23091B   24311.79341058  .00051651  00000-0  22930-2 0  9995
2 57167  97.5904   5.0823 0012703 351.5179   8.5839 15.21303290 75162
0 OBJECT B
1 57167U 23091B   24312.12228133  .00046307  00000-0  20556-2 0  9995
2 57167  97.5905   5.4137 0012641 350.2313   9.8675 15.21336654 75210
0 OBJECT B
1 57167U 23091B   24312.58268862  .00048529  00000-0  21506-2 0  9992
2 57167  97.5905   5.8782 0012728 348.6363  11.4583 15.21380879 75284
0 OBJECT B
1 57167U 23091B   24312.84577230  .00048742  00000-0  21584-2 0  9996
2 57167  97.5905   6.1432 0012659 347.7219  12.3706 15.21406587 75320
0 OBJECT B
1 57167U 23091B   24312.91154266  .00048477  00000-0  21464-2 0  9996
2 57167  97.5905   6.2095 0012663 347.4991  12.5929 15.21412395 75339
0 OBJECT B
1 57167U 23091B   24313.10885145  .00050687  00000-0  22420-2 0  9994
2 57167  97.5905   6.4082 0012647 346.7214  13.3687 15.21434616 75362
0 OBJECT B
1 57167U 23091B   24313.43769416  .00049401  00000-0  21836-2 0  9994
2 57167  97.5908   6.7400 0012596 345.6056  14.4818 15.21465822 75414
0 OBJECT B
1 57167U 23091B   24313.83229629  .00048853  00000-0  21572-2 0  9992
2 57167  97.5908   7.1375 0012568 344.3826  15.7019 15.21504086 75479
0 OBJECT B
1 57167U 23091B   24313.89806225  .00050072  00000-0  22101-2 0  9996
2 57167  97.5908   7.2038 0012562 344.1895  15.8946 15.21511432 75488
0 OBJECT B
1 57167U 23091B   24314.22688719  .00059064  00000-0  26001-2 0  9993
2 57167  97.5909   7.5354 0012527 343.0428  17.0387 15.21553628 75536
0 OBJECT B
1 57167U 23091B   24314.42417866  .00063135  00000-0  27761-2 0  9996
2 57167  97.5910   7.7344 0012487 342.6095  17.4711 15.21572737 75569
0 OBJECT B
1 57167U 23091B   24314.55570476  .00101007  00000-0  44133-2 0  9990
2 57167  97.5910   7.8671 0012508 342.2184  17.8612 15.21601403 75581
0 OBJECT B
1 57167U 23091B   24314.81875003  .00068719  00000-0  30138-2 0  9995
2 57167  97.5910   8.1319 0012458 341.0609  19.0161 15.21632717 75627
0 OBJECT B
1 57167U 23091B   24314.88451143  .00064303  00000-0  28218-2 0  9998
2 57167  97.5910   8.1982 0012454 340.8203  19.2562 15.21635210 75635
0 OBJECT B
1 57167U 23091B   24315.21331078  .00056916  00000-0  24978-2 0  9990
2 57167  97.5911   8.5299 0012375 339.6900  20.3842 15.21672963 75688
0 OBJECT B
1 57167U 23091B   24315.41058670  .00057879  00000-0  25384-2 0  9997
2 57167  97.5911   8.7291 0012385 339.0494  21.0233 15.21689607 75714
0 OBJECT B
1 57167U 23091B   24315.54210264  .00048082  00000-0  21114-2 0  9993
2 57167  97.5911   8.8618 0012408 338.5343  21.5371 15.21700137 75733
0 OBJECT B
1 57167U 23091B   24315.87088773  .00054194  00000-0  23751-2 0  9997
2 57167  97.5909   9.1930 0012354 337.0696  22.9986 15.21734289 75783
0 OBJECT B
1 57167U 23091B   24315.93664396  .00054694  00000-0  23964-2 0  9996
2 57167  97.5909   9.2595 0012340 336.7843  23.2833 15.21740577 75799
0 OBJECT B
1 57167U 23091B   24316.19966607  .00047512  00000-0  20827-2 0  9991
2 57167  97.5909   9.5250 0012347 335.8809  24.1846 15.21763919 75833
0 OBJECT B
1 57167U 23091B   24316.46268411  .00047836  00000-0  20953-2 0  9998
2 57167  97.5909   9.7904 0012342 334.8437  25.2196 15.21788424 75874
0 OBJECT B
1 57167U 23091B   24316.59419143  .00044679  00000-0  19574-2 0  9991
2 57167  97.5909   9.9230 0012349 334.3154  25.7467 15.21799456 75891
0 OBJECT B
1 57167U 23091B   24316.79145144  .00042227  00000-0  18500-2 0  9995
2 57167  97.5909  10.1221 0012367 333.5493  26.5110 15.21813168 75927
0 OBJECT B
1 57167U 23091B   24317.18596622  .00034965  00000-0  15328-2 0  9995
2 57167  97.5909  10.5201 0012363 331.9546  28.1022 15.21836925 75988
0 OBJECT B
1 57167U 23091B   24317.44897201  .00035648  00000-0  15617-2 0  9991
2 57167  97.5910  10.7854 0012355 330.9231  29.1315 15.21855467 76021
0 OBJECT B
1 57167U 23091B   24317.58047379  .00034119  00000-0  14948-2 0  9997
2 57167  97.5911  10.9181 0012353 330.4618  29.5918 15.21864219 76049
0 OBJECT B
1 57167U 23091B   24317.77772513  .00034470  00000-0  15095-2 0  9997
2 57167  97.5910  11.1171 0012312 329.7091  30.3431 15.21876980 76072
0 OBJECT B
1 57167U 23091B   24317.90922508  .00033477  00000-0  14660-2 0  9996
2 57167  97.5910  11.2498 0012316 329.2291  30.8221 15.21884430 76099
0 OBJECT B
1 57167U 23091B   24318.10647387  .00032247  00000-0  14120-2 0  9993
2 57167  97.5910  11.4488 0012304 328.4793  31.5704 15.21896719 76126
0 OBJECT B
1 57167U 23091B   24318.43521794  .00034141  00000-0  14934-2 0  9990
2 57167  97.5911  11.7806 0012253 327.3193  32.7283 15.21919035 76176
0 OBJECT B
1 57167U 23091B   24318.56671475  .00028243  00000-0  12368-2 0  9991
2 57167  97.5910  11.9131 0012249 326.9063  33.1405 15.21922960 76198
0 OBJECT B
1 57167U 23091B   24318.69821087  .00029903  00000-0  13087-2 0  9994
2 57167  97.5909  12.0458 0012190 326.4305  33.6157 15.21931471 76218
0 OBJECT B
1 57167U 23091B   24318.69821087  .00029903  00000-0  13087-2 0  9994
2 57167  97.5909  12.0458 0012190 326.4305  33.6157 15.21931471 76218
0 OBJECT B
1 57167U 23091B   24318.96119997  .00032709  00000-0  14299-2 0  9998
2 57167  97.5908  12.3112 0012174 325.6375  34.4072 15.21949839 76253
0 OBJECT B
1 57167U 23091B   24319.42142505  .00028898  00000-0  12634-2 0  9996
2 57167  97.5906  12.7753 0012114 323.9290  36.1127 15.21975313 76321
0 OBJECT B
1 57167U 23091B   24319.55291644  .00029504  00000-0  12894-2 0  9992
2 57167  97.5906  12.9080 0012119 323.5244  36.5165 15.21984315 76346
0 OBJECT B
1 57167U 23091B   24319.61866186  .00029755  00000-0  13001-2 0  9997
2 57167  97.5906  12.9744 0012116 323.2938  36.7466 15.21988649 76358
0 OBJECT B
1 57167U 23091B   24319.61866186  .00029755  00000-0  13001-2 0  9997
2 57167  97.5906  12.9744 0012116 323.2938  36.7466 15.21988649 76358
0 OBJECT B
1 57167U 23091B   24320.21036252  .00034686  00000-0  15123-2 0  9994
2 57167  97.5901  13.5716 0012081 321.1207  38.9158 15.22028094 76448
0 OBJECT B
1 57167U 23091B   24320.53907887  .00031381  00000-0  13684-2 0  9999
2 57167  97.5901  13.9032 0012044 319.9266  40.1080 15.22047002 76496
0 OBJECT B
1 57167U 23091B   24320.60482149  .00031469  00000-0  13720-2 0  9994
2 57167  97.5901  13.9695 0012042 319.6545  40.3797 15.22051886 76500
0 OBJECT B
1 57167U 23091B   24320.80204871  .00033257  00000-0  14489-2 0  9990
2 57167  97.5899  14.1685 0012027 318.8692  41.1636 15.22064406 76531
0 OBJECT B
1 57167U 23091B   24320.93353242  .00038755  00000-0  16861-2 0  9995
2 57167  97.5899  14.3012 0012020 318.3405  41.6914 15.22076421 76553
0 OBJECT B
1 57167U 23091B   24321.13075652  .00040373  00000-0  17552-2 0  9991
2 57167  97.5897  14.5003 0011986 317.4874  42.5432 15.22091295 76587
0 OBJECT B
1 57167U 23091B   24321.26223854  .00031529  00000-0  13730-2 0  9991
2 57167  97.5896  14.6330 0011961 316.8982  43.1316 15.22092829 76601
0 OBJECT B
1 57167U 23091B   24321.45946035  .00030944  00000-0  13472-2 0  9998
2 57167  97.5895  14.8319 0011985 316.1737  43.8547 15.22104391 76630
0 OBJECT B
1 57167U 23091B   24321.78816024  .00027068  00000-0  11789-2 0  9990
2 57167  97.5892  15.1634 0011985 314.8363  45.1898 15.22120958 76687
0 OBJECT B
1 57167U 23091B   24322.11685686  .00022904  00000-0  99818-3 0  9990
2 57167  97.5890  15.4951 0012020 313.6442  46.3796 15.22134785 76735
